KAITUO 1B               
1 40912U 15049P   17316.74639372  .00002731  00000-0  13656-3 0  9991
2 40912  97.4517 322.2339 0017080  49.8685  35.9185 15.18169052118820
TIANWANG 1C (TW-1C)     
1 40926U 15051B   17316.81567622  .00013214  00000-0  27635-3 0  9995
2 40926  97.2131 355.3341 0010990 359.8140  87.7696 15.45534200119855
TIANWANG 1B (TW-1B)     
1 40927U 15051C   17316.87038353  .00013349  00000-0  29021-3 0  9996
2 40927  97.2219 355.3361 0011239  11.2068 109.2976 15.44383758119793
TIANWANG 1A (TW-1A)     
1 40928U 15051D   17316.88988602  .00004968  00000-0  13744-3 0  9991
2 40928  97.2119 350.0154 0013283  31.0222  93.0911 15.37378268119531
LAPAN-A2 (IO-86)        
1 40931U 15052B   17316.23853753  .00000768  00000-0  18051-4 0  9994
2 40931   6.0006 257.0747 0012626 179.3843 180.7018 14.76554475114880
LQSAT                   
1 40958U 15057A   17316.87992986  .00000069  00000-0  18473-4 0  9992
2 40958  97.9652  29.4999 0017281 314.2058  45.7711 14.72999516113003
CHUBUSAT-2              
1 41338U 16012B   17316.90038410  .00000530  00000-0  34942-4 0  9996
2 41338  31.0032 247.6991 0013797  91.9908 268.2308 14.99864667 95330
CHUBUSAT-3              
1 41339U 16012C   17316.87516830  .00000610  00000-0  40987-4 0  9995
2 41339  31.0097 246.7722 0013555  98.6917 261.5254 15.00061501 95313
OUFTI-1                 
1 41458U 16025C   17316.79175023  .00003441  00000-0  18322-3 0  9999
2 41458  98.1695   2.8221 0173463 152.2841 208.7693 15.03914460 84903
E-ST@R-II               
1 41459U 16025D   17316.69744091  .00002782  00000-0  14996-3 0  9996
2 41459  98.1656   2.6375 0173692 153.1187 207.9110 15.03682539 84887
AAUSAT 4                
1 41460U 16025E   17316.79596257  .00005042  00000-0  26598-3 0  9991
2 41460  98.1628   2.9550 0166175 150.2590 210.8127 15.04853982 84930
NUSAT 1 (LO-87)         
1 41557U 16033B   17316.80181190  .00002016  00000-0  77139-4 0  9991
2 41557  97.4538  36.2895 0013598 196.2432 163.8373 15.27682599 81112
BEESAT-4                
1 41619U 16040W   17316.60630678  .00002062  00000-0  94920-4 0  9994
2 41619  97.4457  17.4720 0010218 268.7109  91.2956 15.21418412 65153
PRATHAM                 
1 41783U 16059A   17316.58933444  .00000098  00000-0  28331-4 0  9990
2 41783  98.1496  16.2877 0034676  56.8815 303.5706 14.62877724 60291
ALSAT 1N                
1 41789U 16059G   17316.86477629  .00000144  00000-0  36398-4 0  9999
2 41789  98.1497  17.3507 0029479  49.8486 310.5276 14.64098804 60365
NAYIF-1 (EO-88)         
1 42017U 17008BX  17316.82801659  .00002202  00000-0  94719-4 0  9997
2 42017  97.4785  17.9105 0007990  67.1534 293.0546 15.23689080 41118
LILACSAT-1              
1 42725U 98067ME  17316.59354992  .00017229  00000-0  21200-3 0  9993
2 42725  51.6398  15.0134 0004811 131.4769 228.6638 15.60342696 26604
MAX VALIER SAT          
1 42778U 17036P   17316.61525775  .00001478  00000-0  70036-4 0  9991
2 42778  97.4348  14.6035 0014458 106.9253 253.3569 15.20803904 21583
